NORAD_CAT_ID,OBJECT_NAME,OBJECT_TYPE,EPOCH,MEAN_MOTION,ECCENTRICITY,INCLINATION,RA_OF_ASC_NODE,ARG_OF_PERICENTER,MEAN_ANOMALY,BSTAR,MEAN_MOTION_DOT,MEAN_MOTION_DDOT,TLE_LINE0,TLE_LINE1,TLE_LINE2,SEMIMAJOR_AXIS,PERIOD,APOGEE,PERIGEE,DECAYED
52140.0,STARLINK-3682,PAYLOAD,2023-03-14 14:37:10,15.0883852,6.77e-05,53.2153,287.1759,112.306,247.8004,0.00018524,2.662e-05,0.0,0 STARLINK-3682,1 52140U 22029BE  23073.60915220  .00002662  00000-0  18524-3 0  9996,2 52140  53.2153 287.1759 0000677 112.3060 247.8004 15.08838520 56225,6917.885,95.438,540.218,539.282,0.0
52140.0,STARLINK-3682,PAYLOAD,2023-03-14 20:58:43,15.08855394,0.000152,53.2117,285.9866,96.2092,263.9073,0.00058641,9.061e-05,0.0,0 STARLINK-3682,1 52140U 22029BE  23073.87410921  .00009061  00000-0  58641-3 0  9997,2 52140  53.2117 285.9866 0001520  96.2092 263.9073 15.08855394 56260,6917.833,95.437,540.75,538.647,0.0
52140.0,STARLINK-3682,PAYLOAD,2023-03-15 00:09:29,15.08857553,0.0001286,53.2119,285.3924,91.6395,268.4745,0.00078883,0.00012295,0.0,0 STARLINK-3682,1 52140U 22029BE  23074.00658938  .00012295  00000-0  78883-3 0  9998,2 52140  53.2119 285.3924 0001286  91.6395 268.4745 15.08857553 56282,6917.827,95.436,540.581,538.802,0.0
52140.0,STARLINK-3682,PAYLOAD,2023-03-15 20:49:29,15.08855589,0.0001737,53.2156,281.5241,87.463,272.6561,0.00039438,5.997e-05,0.0,0 STARLINK-3682,1 52140U 22029BE  23074.86770664  .00005997  00000-0  39438-3 0  9997,2 52140  53.2156 281.5241 0001737  87.4630 272.6561 15.08855589 56414,6917.833,95.437,540.899,538.496,0.0
52140.0,STARLINK-3682,PAYLOAD,2023-03-16 00:00:16,15.08858011,0.0001255,53.2124,280.9305,93.1698,266.9438,0.00048939,7.513e-05,0.0,0 STARLINK-3682,1 52140U 22029BE  23075.00018528  .00007513  00000-0  48939-3 0  9990,2 52140  53.2124 280.9305 0001255  93.1698 266.9438 15.08858011 56430,6917.825,95.436,540.559,538.822,0.0
52140.0,STARLINK-3682,PAYLOAD,2023-03-16 20:40:17,15.08827847,0.000147,53.2142,277.0651,86.3638,273.7522,0.00051229,7.872e-05,0.0,0 STARLINK-3682,1 52140U 22029BE  23075.86131588  .00007872  00000-0  51229-3 0  9990,2 52140  53.2142 277.0651 0001470  86.3638 273.7522 15.08827847 56565,6917.918,95.438,540.799,538.766,0.0
52140.0,STARLINK-3682,PAYLOAD,2023-03-17 06:12:36,15.08830956,0.0001045,53.2138,275.281,81.8474,278.2636,0.00038997,5.922e-05,0.0,0 STARLINK-3682,1 52140U 22029BE  23076.25875877  .00005922  00000-0  38997-3 0  9991,2 52140  53.2138 275.2810 0001045  81.8474 278.2636 15.08830956 56621,6917.908,95.438,540.496,539.05,0.0
52140.0,STARLINK-3682,PAYLOAD,2023-03-17 23:41:50,15.08853215,7.24e-05,53.2123,272.0089,70.6298,289.4772,0.00065506,0.00010157,0.0,0 STARLINK-3682,1 52140U 22029BE  23076.98739368  .00010157  00000-0  65506-3 0  9997,2 52140  53.2123 272.0089 0000724  70.6298 289.4772 15.08853215 56731,6917.84,95.437,540.206,539.204,0.0
52140.0,STARLINK-3682,PAYLOAD,2023-03-18 06:03:23,15.08838378,0.0001707,53.2131,270.8195,76.4841,283.6341,0.00011962,1.616e-05,0.0,0 STARLINK-3682,1 52140U 22029BE  23077.25235774  .00001616  00000-0  11962-3 0  9997,2 52140  53.2131 270.8195 0001707  76.4841 283.6341 15.08838378 56779,6917.885,95.438,540.931,538.569,0.0
52140.0,STARLINK-3682,PAYLOAD,2023-03-18 21:57:14,15.08845571,0.0001183,53.2132,267.846,78.6577,281.4548,0.00035719,5.402e-05,0.0,0 STARLINK-3682,1 52140U 22029BE  23077.91475558  .00005402  00000-0  35719-3 0  9999,2 52140  53.2132 267.8460 0001183  78.6577 281.4548 15.08845571 56878,6917.863,95.437,540.547,538.91,0.0
52140.0,STARLINK-3682,PAYLOAD,2023-03-19 12:15:43,15.08846958,0.0001345,53.2122,265.1705,79.6427,280.4717,0.00042604,6.5e-05,0.0,0 STARLINK-3682,1 52140U 22029BE  23078.51091631  .00006500  00000-0  42604-3 0  9993,2 52140  53.2122 265.1705 0001345  79.6427 280.4717 15.08846958 56962,6917.859,95.437,540.655,538.794,0.0
52140.0,STARLINK-3682,PAYLOAD,2023-03-19 18:37:15,15.08851093,0.0001234,53.2128,263.9798,84.207,275.9063,0.00044619,6.822e-05,0.0,0 STARLINK-3682,1 52140U 22029BE  23078.77587381  .00006822  00000-0  44619-3 0  9998,2 52140  53.2128 263.9798 0001234  84.2070 275.9063 15.08851093 57004,6917.846,95.437,540.565,538.858,0.0
52140.0,STARLINK-3682,PAYLOAD,2023-03-20 12:06:29,15.0884747,0.0001238,53.2126,260.7078,79.0857,281.0275,0.00024277,3.579e-05,0.0,0 STARLINK-3682,1 52140U 22029BE  23079.50451302  .00003579  00000-0  24277-3 0  9997,2 52140  53.2126 260.7078 0001238  79.0857 281.0275 15.08847470 57116,6917.858,95.437,540.579,538.866,0.0
52140.0,STARLINK-3682,PAYLOAD,2023-03-20 18:28:02,15.08849381,0.0001141,53.2125,259.5196,83.2383,276.8739,0.00026008,3.855e-05,0.0,0 STARLINK-3682,1 52140U 22029BE  23079.76947092  .00003855  00000-0  26008-3 0  9992,2 52140  53.2125 259.5196 0001141  83.2383 276.8739 15.08849381 57150,6917.852,95.437,540.506,538.927,0.0
52140.0,STARLINK-3682,PAYLOAD,2023-03-21 11:57:16,15.08846966,8.89e-05,53.2133,256.2488,77.6057,282.5034,0.00018282,2.624e-05,0.0,0 STARLINK-3682,1 52140U 22029BE  23080.49810991  .00002624  00000-0  18282-3 0  9999,2 52140  53.2133 256.2488 0000889  77.6057 282.5034 15.08846966 57260,6917.859,95.437,540.339,539.109,0.0
52140.0,STARLINK-3682,PAYLOAD,2023-03-22 11:48:03,15.08840905,7.43e-05,53.2136,251.7873,72.3521,287.7552,6.4238e-05,7.35e-06,0.0,0 STARLINK-3682,1 52140U 22029BE  23081.49171116  .00000735  00000-0  64238-4 0  9993,2 52140  53.2136 251.7873 0000743  72.3521 287.7552 15.08840905 57414,6917.878,95.437,540.257,539.229,0.0
52140.0,STARLINK-3682,PAYLOAD,2023-03-22 18:09:36,15.08846082,8.02e-05,53.2138,250.5972,87.357,272.7514,0.00010195,1.335e-05,0.0,0 STARLINK-3682,1 52140U 22029BE  23081.75666857  .00001335  00000-0  10195-3 0  9992,2 52140  53.2138 250.5972 0000802  87.3570 272.7514 15.08846082 57457,6917.862,95.437,540.282,539.172,0.0
52140.0,STARLINK-3682,PAYLOAD,2023-03-23 10:03:28,15.08832583,0.0001295,53.2154,247.6241,91.2161,268.898,9.0082e-06,-1.45e-06,0.0,0 STARLINK-3682,1 52140U 22029BE  23082.41907710 -.00000145  00000-0  90082-5 0  9996,2 52140  53.2154 247.6241 0001295  91.2161 268.8980 15.08832583 57553,6917.903,95.438,540.664,538.872,0.0
52140.0,STARLINK-3682,PAYLOAD,2023-03-23 18:00:24,15.08832884,7.78e-05,53.2149,246.1374,78.7446,281.3634,2.1921e-05,6.1e-07,0.0,0 STARLINK-3682,1 52140U 22029BE  23082.75027854  .00000061  00000-0  21921-4 0  9996,2 52140  53.2149 246.1374 0000778  78.7446 281.3634 15.08832884 57605,6917.902,95.438,540.305,539.229,0.0
52140.0,STARLINK-3682,PAYLOAD,2023-03-24 11:29:38,15.08845848,7.39e-05,53.2134,242.8649,68.7053,291.4018,0.00032264,4.852e-05,0.0,0 STARLINK-3682,1 52140U 22029BE  23083.47891544  .00004852  00000-0  32264-3 0  9994,2 52140  53.2134 242.8649 0000739  68.7053 291.4018 15.08845848 57711,6917.863,95.437,540.239,539.216,0.0
52140.0,STARLINK-3682,PAYLOAD,2023-03-24 21:01:56,15.08876362,0.000102,53.2146,241.0821,80.2286,279.8822,0.0012666,0.00019947,0.0,0 STARLINK-3682,1 52140U 22029BE  23083.87634792  .00019947  00000-0  12666-2 0  9992,2 52140  53.2146 241.0821 0001020  80.2286 279.8822 15.08876362 57772,6917.769,95.435,540.34,538.929,0.0
52140.0,STARLINK-3682,PAYLOAD,2023-03-25 03:23:29,15.08828502,0.0001011,53.2152,239.8973,105.844,254.2664,-0.00098803,-0.00015973,0.0,0 STARLINK-3682,1 52140U 22029BE  23084.14131592 -.00015973  00000-0 -98803-3 0  9998,2 52140  53.2152 239.8973 0001011 105.8440 254.2664 15.08828502 57817,6917.916,95.438,540.48,539.081,0.0
52140.0,STARLINK-3682,PAYLOAD,2023-03-25 11:20:26,15.08807875,8.65e-05,53.2144,238.4059,101.3996,258.7093,-0.0010029,-0.00016199,0.0,0 STARLINK-3682,1 52140U 22029BE  23084.47252517 -.00016199  00000-0 -10029-2 0  9999,2 52140  53.2144 238.4059 0000865 101.3996 258.7093 15.08807875 57861,6917.979,95.44,540.442,539.245,0.0
52140.0,STARLINK-3682,PAYLOAD,2023-03-25 17:41:59,15.08799448,9.84e-05,53.2144,237.2173,102.4717,257.6385,0.001096,0.00017179,0.0,0 STARLINK-3682,1 52140U 22029BE  23084.73749512  .00017179  00000-0  10960-2 0  9995,2 52140  53.2144 237.2173 0000984 102.4717 257.6385 15.08799448 57903,6918.004,95.44,540.55,539.189,0.0
52140.0,STARLINK-3682,PAYLOAD,2023-03-26 03:14:18,15.08822265,9.92e-05,53.2146,235.4329,103.5353,256.575,0.0015779,0.00024901,0.0,0 STARLINK-3682,1 52140U 22029BE  23085.13494087  .00024901  00000-0  15779-2 0  9998,2 52140  53.2146 235.4329 0000992 103.5353 256.5750 15.08822265 57969,6917.935,95.439,540.486,539.113,0.0
52140.0,STARLINK-3682,PAYLOAD,2023-03-26 17:32:46,15.08866511,8.71e-05,53.2142,232.7557,102.1266,257.9824,0.002081,0.00033011,0.0,0 STARLINK-3682,1 52140U 22029BE  23085.73109708  .00033011  00000-0  20810-2 0  9991,2 52140  53.2142 232.7557 0000871 102.1266 257.9824 15.08866511 58052,6917.799,95.436,540.267,539.062,0.0
52140.0,STARLINK-3682,PAYLOAD,2023-03-27 03:05:05,15.08866502,0.0001272,53.2144,230.9741,68.8368,291.276,0.0010908,0.00017127,0.0,0 STARLINK-3682,1 52140U 22029BE  23086.12853417  .00017127  00000-0  10908-2 0  9995,2 52140  53.2144 230.9741 0001272  68.8368 291.2760 15.08866502 58113,6917.799,95.436,540.544,538.784,0.0
52140.0,STARLINK-3682,PAYLOAD,2023-03-27 14:12:46,15.08869807,9.48e-05,53.2141,228.8908,91.4584,268.6517,0.00071684,0.00011148,0.0,0 STARLINK-3682,1 52140U 22029BE  23086.59220594  .00011148  00000-0  71684-3 0  9996,2 52140  53.2141 228.8908 0000948  91.4584 268.6517 15.08869807 58188,6917.789,95.436,540.31,538.998,0.0
52140.0,STARLINK-3682,PAYLOAD,2023-03-27 15:48:09,15.08874989,9.65e-05,53.2141,228.5925,93.9248,266.1855,0.00090151,0.00014102,0.0,0 STARLINK-3682,1 52140U 22029BE  23086.65844408  .00014102  00000-0  90151-3 0  9992,2 52140  53.2141 228.5925 0000965  93.9248 266.1855 15.08874989 58193,6917.773,95.435,540.306,538.971,0.0
52140.0,STARLINK-3682,PAYLOAD,2023-03-28 02:55:51,15.08869262,0.0001469,53.2131,226.5164,52.3867,307.7258,0.00080163,0.00012503,0.0,0 STARLINK-3682,1 52140U 22029BE  23087.12212108  .00012503  00000-0  80163-3 0  9996,2 52140  53.2131 226.5164 0001469  52.3867 307.7258 15.08869262 58266,6917.791,95.436,540.672,538.64,0.0
